[{"OBJECT_NAME":"REAL","OBJECT_ID":"2025-154G","EPOCH":"2026-03-09T17:20:09.670560","MEAN_MOTION":15.28408058,"ECCENTRICITY":0.00018528,"INCLINATION":97.4133,"RA_OF_ASC_NODE":137.2581,"ARG_OF_PERICENTER":118.5876,"MEAN_ANOMALY":241.555,"EPHEMERIS_TYPE":0,"CLASSIFICATION_TYPE":"U","NORAD_CAT_ID":64875,"ELEMENT_SET_NO":999,"REV_AT_EPOCH":3483,"BSTAR":0.0008290401,"MEAN_MOTION_DOT":0.00022901,"MEAN_MOTION_DDOT":0},{"OBJECT_NAME":"STARLINK-34844","OBJECT_ID":"2025-263B","EPOCH":"2026-03-09T02:37:31.688256","MEAN_MOTION":15.27577164,"ECCENTRICITY":0.00017896,"INCLINATION":43.0041,"RA_OF_ASC_NODE":353.6766,"ARG_OF_PERICENTER":255.4562,"MEAN_ANOMALY":104.6092,"EPHEMERIS_TYPE":0,"CLASSIFICATION_TYPE":"U","NORAD_CAT_ID":66486,"ELEMENT_SET_NO":999,"REV_AT_EPOCH":1876,"BSTAR":0.0016705604,"MEAN_MOTION_DOT":0.00045992,"MEAN_MOTION_DDOT":0}]
